STARLINK-34778          
1 65021U 25161G   26197.34413110  .00008479  00000+0  29808-3 0  9998
2 65021  53.1600  56.8878 0001334  73.9891 286.1257 15.30198020 55012
STARLINK-34789          
1 65022U 25161H   26196.03359763  .00017724  00000+0  60810-3 0  9998
2 65022  53.1605  62.9273 0001059  92.4834 267.6288 15.30253951 54812
STARLINK-34858          
1 65023U 25161J   26197.58335648  .00039623  00000+0  12097-2 0  9991
2 65023  53.1591  55.5474 0001018  86.0580 267.3923 15.33549645  5865
STARLINK-34773          
1 65024U 25161K   26197.02138967  .00007953  00000+0  24625-3 0  9998
2 65024  53.1593  56.3004 0001306  80.1477 279.9673 15.34401635 54992
STARLINK-34727          
1 65025U 25161L   26197.59288895  .00011267  00000+0  34414-3 0  9997
2 65025  53.1592  53.4675 0001209  84.4076 275.7064 15.34394631 55118
STARLINK-34804          
1 65026U 25161M   26197.32513204  .00005632  00000+0  20218-3 0  9990
2 65026  53.1593  56.7650 0001265  94.6526 265.4619 15.30194134 55039
STARLINK-34655          
1 65027U 25161N   26197.58335648  .00031720  00000+0  94664-3 0  9996
2 65027  53.1604  55.6636 0001878  79.1337 213.5301 15.34377043  5812
STARLINK-34807          
1 65028U 25161P   26196.90164191  .00009160  00000+0  28176-3 0  9993
2 65028  53.1590  56.9694 0001281  47.2987 312.8123 15.34417870 54980
STARLINK-34731          
1 65029U 25161Q   26197.59709878  .00015365  00000+0  46502-3 0  9994
2 65029  53.1581  53.4965 0001591  87.8845 272.2340 15.34395930 55096
STARLINK-34614          
1 65030U 25161R   26197.60658323  .00443458  00000+0  12843-1 0  9993
2 65030  53.1596  55.6785 0001797  54.9454 305.1717 15.33229826 55067
STARLINK-34677          
1 65031U 25161S   26197.01649871  .00007032  00000+0  24930-3 0  9993
2 65031  53.1605  58.3948 0001526  63.9486 296.1672 15.30202673 53879
STARLINK-34656          
1 65032U 25161T   26197.58335648  .00041073  00000+0  12211-2 0  9991
2 65032  53.1598  55.6421 0001017 119.4206 184.8460 15.34375451  5817
STARLINK-34610          
1 65034U 25161V   26197.58840669  .00076199  00000+0  25400-2 0  9998
2 65034  53.1600  55.5633 0004413  60.6512 299.4930 15.30429767 53967
STARLINK-34286          
1 65035U 25161W   26197.34286519  .00007241  00000+0  22528-3 0  9992
2 65035  53.1592  54.7496 0001254  82.7313 277.3832 15.34395115 53958
STARLINK-34770          
1 65036U 25161X   26197.33781323  .00009791  00000+0  34260-3 0  9993
2 65036  53.1597  56.8409 0001006 111.7312 248.3796 15.30166386 53924
STARLINK-34776          
1 65037U 25161Y   26196.94168543  .00009577  00000+0  33506-3 0  9997
2 65037  53.1608  58.6373 0001238  78.7161 281.3979 15.30200779 53867
STARLINK-34827          
1 65038U 25161Z   26197.61182449  .00008748  00000+0  26977-3 0  9997
2 65038  53.1594  53.5756 0001564 100.5453 259.5726 15.34395430 53995
STARLINK-34721          
1 65039U 25161AA  26196.96267761  .00004215  00000+0  15438-3 0  9991
2 65039  53.1595  58.0569 0001430 101.2565 258.8596 15.30197076 53879
STARLINK-34819          
1 65040U 25161AB  26197.58925590  .00010935  00000+0  33441-3 0  9993
2 65040  53.1612  55.5637 0001224 105.5841 254.5297 15.34390415 53961
STARLINK-34820          
1 65041U 25161AC  26197.59498025  .00024128  00000+0  72220-3 0  9990
2 65041  53.1601  53.4781 0001238  73.3211 286.7928 15.34433018 53993
STARLINK-34824          
1 65042U 25161AD  26197.61392690  .00011803  00000+0  35987-3 0  9990
2 65042  53.1590  53.5937 0001077  87.7594 272.3532 15.34403078 53994
HULIANWANG DIGUI-40     
1 65043U 25162A   26197.56128689 -.00000118  00000+0  11997-4 0  9995
2 65043  49.9980 160.5790 0000288 323.0933  36.9919 13.29327347 47254
HULIANWANG DIGUI-41     
1 65044U 25162B   26197.55295043 -.00000122  00000+0  38123-5 0  9990
2 65044  49.9990 160.5631 0000269 332.3373  27.7484 13.29326965 47261
HULIANWANG DIGUI-42     
1 65045U 25162C   26197.54453061 -.00000122  00000+0  52682-5 0  9992
2 65045  49.9955 160.4228 0000285 320.6076  39.4775 13.29327655 47262
HULIANWANG DIGUI-43     
1 65046U 25162D   26197.46103617 -.00000122  00000+0  33008-5 0  9994
2 65046  49.9972 160.6982 0000322 316.9413  43.1434 13.29326224 47250
HULIANWANG DIGUI-44     
1 65047U 25162E   26197.52775963 -.00000124  00000+0 -39437-6 0  9997
2 65047  49.9999 160.4590 0001420 334.3837  25.6964 13.29318661 47278
HULIANWANG DIGUI-45     
1 65048U 25162F   26197.51952519 -.00000124  00000+0 -23448-6 0  9996
2 65048  50.0029 160.5000 0000264 326.3241  33.7614 13.29327223 47263
HULIANWANG DIGUI-46     
1 65049U 25162G   26197.58637432 -.00000122  00000+0  40400-5 0  9991
2 65049  50.0047 160.2374 0000251 322.6267  37.4588 13.29326998 47278
HULIANWANG DIGUI-47     
1 65050U 25162H   26197.57802276 -.00000119  00000+0  98023-5 0  9992
2 65050  50.0011 160.0963 0000261 312.9074  47.1776 13.29326593 47270
HULIANWANG DIGUI-48     
1 65051U 25162J   26197.56966394 -.00000123  00000+0  16840-5 0  9996
2 65051  50.0022 160.0801 0000285 320.7538  39.3314 13.29327346 47270
