OBJECT_NAME,OBJECT_ID,EPOCH,MEAN_MOTION,ECCENTRICITY,INCLINATION,RA_OF_ASC_NODE,ARG_OF_PERICENTER,MEAN_ANOMALY,EPHEMERIS_TYPE,CLASSIFICATION_TYPE,NORAD_CAT_ID,ELEMENT_SET_NO,REV_AT_EPOCH,BSTAR,MEAN_MOTION_DOT,MEAN_MOTION_DDOT
STARLINK-34778,2025-161G,2026-07-16T08:15:32.927040,15.30198020,.00013349,53.1600,56.8878,73.9891,286.1257,0,U,65021,999,5501,.29807903E-3,.8479E-4,0
STARLINK-34789,2025-161H,2026-07-15T00:48:22.835232,15.30253951,.00010591,53.1605,62.9273,92.4834,267.6288,0,U,65022,999,5481,.6081022E-3,.17724E-3,0
STARLINK-34858,2025-161J,2026-07-16T14:00:01.999872,15.33549645,.0001018,53.1591,55.5474,86.0580,267.3923,0,U,65023,999,586,.12096992E-2,.39623E-3,0
STARLINK-34773,2025-161K,2026-07-16T00:30:48.067488,15.34401635,.00013068,53.1593,56.3004,80.1477,279.9673,0,U,65024,999,5499,.24624533E-3,.7953E-4,0
STARLINK-34727,2025-161L,2026-07-16T14:13:45.605280,15.34394631,.00012099,53.1592,53.4675,84.4076,275.7064,0,U,65025,999,5511,.34414016E-3,.11267E-3,0
STARLINK-34804,2025-161M,2026-07-16T07:48:11.408256,15.30194134,.00012655,53.1593,56.7650,94.6526,265.4619,0,U,65026,999,5503,.20217839E-3,.5632E-4,0
STARLINK-34655,2025-161N,2026-07-16T14:00:01.999872,15.34377043,.00018789,53.1604,55.6636,79.1337,213.5301,0,U,65027,999,581,.94664317E-3,.3172E-3,0
STARLINK-34807,2025-161P,2026-07-15T21:38:21.861024,15.34417870,.0001281,53.1590,56.9694,47.2987,312.8123,0,U,65028,999,5498,.28176E-3,.916E-4,0
STARLINK-34731,2025-161Q,2026-07-16T14:19:49.334592,15.34395930,.00015915,53.1581,53.4965,87.8845,272.2340,0,U,65029,999,5509,.46501911E-3,.15365E-3,0
STARLINK-34614,2025-161R,2026-07-16T14:33:28.791072,15.33229826,.00017973,53.1596,55.6785,54.9454,305.1717,0,U,65030,999,5506,.12843436E-1,.443458E-2,0
STARLINK-34677,2025-161S,2026-07-16T00:23:45.488544,15.30202673,.00015262,53.1605,58.3948,63.9486,296.1672,0,U,65031,999,5387,.24930472E-3,.7032E-4,0
STARLINK-34656,2025-161T,2026-07-16T14:00:01.999872,15.34375451,.00010178,53.1598,55.6421,119.4206,184.8460,0,U,65032,999,581,.12210619E-2,.41073E-3,0
STARLINK-34610,2025-161V,2026-07-16T14:07:18.338016,15.30429767,.00044135,53.1600,55.5633,60.6512,299.4930,0,U,65034,999,5396,.2540017E-2,.76199E-3,0
STARLINK-34286,2025-161W,2026-07-16T08:13:43.552416,15.34395115,.00012549,53.1592,54.7496,82.7313,277.3832,0,U,65035,999,5395,.22528156E-3,.7241E-4,0
STARLINK-34770,2025-161X,2026-07-16T08:06:27.063072,15.30166386,.00010066,53.1597,56.8409,111.7312,248.3796,0,U,65036,999,5392,.34259936E-3,.9791E-4,0
STARLINK-34776,2025-161Y,2026-07-15T22:36:01.621152,15.30200779,.0001238,53.1608,58.6373,78.7161,281.3979,0,U,65037,999,5386,.33506E-3,.9577E-4,0
STARLINK-34827,2025-161Z,2026-07-16T14:41:01.635936,15.34395430,.00015645,53.1594,53.5756,100.5453,259.5726,0,U,65038,999,5399,.26977039E-3,.8748E-4,0
STARLINK-34721,2025-161AA,2026-07-15T23:06:15.345504,15.30197076,.00014304,53.1595,58.0569,101.2565,258.8596,0,U,65039,999,5387,.15437965E-3,.4215E-4,0
STARLINK-34819,2025-161AB,2026-07-16T14:08:31.709760,15.34390415,.00012242,53.1612,55.5637,105.5841,254.5297,0,U,65040,999,5396,.33440623E-3,.10935E-3,0
STARLINK-34820,2025-161AC,2026-07-16T14:16:46.293600,15.34433018,.00012381,53.1601,53.4781,73.3211,286.7928,0,U,65041,999,5399,.72219692E-3,.24128E-3,0
STARLINK-34824,2025-161AD,2026-07-16T14:44:03.284160,15.34403078,.0001077,53.1590,53.5937,87.7594,272.3532,0,U,65042,999,5399,.35987003E-3,.11803E-3,0
HULIANWANG DIGUI-40,2025-162A,2026-07-16T13:28:15.187296,13.29327347,.00002883,49.9980,160.5790,323.0933,36.9919,0,U,65043,999,4725,.1199735E-4,-.118E-5,0
HULIANWANG DIGUI-41,2025-162B,2026-07-16T13:16:14.917152,13.29326965,.00002696,49.9990,160.5631,332.3373,27.7484,0,U,65044,999,4726,.3812278E-5,-.122E-5,0
HULIANWANG DIGUI-42,2025-162C,2026-07-16T13:04:07.444704,13.29327655,.0000285,49.9955,160.4228,320.6076,39.4775,0,U,65045,999,4726,.526822E-5,-.122E-5,0
HULIANWANG DIGUI-43,2025-162D,2026-07-16T11:03:53.525088,13.29326224,.0000322,49.9972,160.6982,316.9413,43.1434,0,U,65046,999,4725,.3300756E-5,-.122E-5,0
HULIANWANG DIGUI-44,2025-162E,2026-07-16T12:39:58.432032,13.29318661,.00014208,49.9999,160.4590,334.3837,25.6964,0,U,65047,999,4727,-.394374E-6,-.124E-5,0
HULIANWANG DIGUI-45,2025-162F,2026-07-16T12:28:06.976416,13.29327223,.00002642,50.0029,160.5000,326.3241,33.7614,0,U,65048,999,4726,-.234481E-6,-.124E-5,0
HULIANWANG DIGUI-46,2025-162G,2026-07-16T14:04:22.741248,13.29326998,.00002514,50.0047,160.2374,322.6267,37.4588,0,U,65049,999,4727,.4039966E-5,-.122E-5,0
HULIANWANG DIGUI-47,2025-162H,2026-07-16T13:52:21.166464,13.29326593,.00002618,50.0011,160.0963,312.9074,47.1776,0,U,65050,999,4727,.9802254E-5,-.119E-5,0
HULIANWANG DIGUI-48,2025-162J,2026-07-16T13:40:18.964416,13.29327346,.00002857,50.0022,160.0801,320.7538,39.3314,0,U,65051,999,4727,.1683955E-5,-.123E-5,0
